ATLAS CENTAUR R/B       
1 06155U 72065B   26054.30153926  .00001360  00000+0  18832-3 0  9997
2 06155  35.0024  30.0684 0034411 249.4093 110.2915 14.77640693839138
SL-8 R/B                
1 08459U 75112B   26054.38249588  .00000160  00000+0  61345-4 0  9995
2 08459  74.0599  45.2307 0014817 144.0237 216.1918 14.38194733629812
SL-3 R/B                
1 10114U 77057B   26054.47265048  .00014620  00000+0  31114-3 0  9991
2 10114  97.5756 225.7740 0006880 342.6621  17.4391 15.45048804666137
SEASAT 1                
1 10967U 78064A   26054.38492289  .00000227  00000+0  10204-3 0  9990
2 10967 108.0143  95.4810 0001945 291.2001  68.8937 14.46148188504446
SL-14 R/B               
1 11267U 79011B   26054.42863289  .00000525  00000+0  49237-4 0  9994
2 11267  82.5232 110.1052 0017600 104.1874 256.1302 14.91889876526654
SL-8 R/B                
1 11574U 79089B   26054.45742502  .00000238  00000+0  80073-4 0  9991
2 11574  74.0684 117.3907 0017027 291.5700  68.3642 14.42341203434057
SL-14 R/B               
1 11672U 80005B   26054.23093439  .00000615  00000+0  59704-4 0  9990
2 11672  82.5168 320.9488 0014892 206.7519 153.2934 14.90910939474330
SL-8 R/B                
1 12139U 81003B   26054.42792788  .00018173  00000+0  47483-3 0  9990
2 12139  82.9393 303.2060 0262686 228.2328 129.6189 15.10400468312521
SL-3 R/B                
1 12465U 81046B   26054.44141692  .00015057  00000+0  35461-3 0  9994
2 12465  81.2322 306.8469 0020608  69.6917 290.6537 15.41580585436230
SL-3 R/B                
1 12904U 81103B   26054.43340295  .00006510  00000+0  29035-3 0  9999
2 12904  81.1568 230.1549 0012878 337.6014  22.4653 15.21183237971069
SL-3 R/B                
1 13068U 82013B   26054.44754281  .00005349  00000+0  23277-3 0  9998
2 13068  81.1760 177.4571 0021940 226.2762 133.6654 15.21846256402181
SL-3 R/B                
1 13154U 82039B   26054.47634008  .00002605  00000+0  15735-3 0  9991
2 13154  81.1590 232.3470 0029996  10.8768 349.3098 15.09989793379494
