CCSDS_OMM_VERS = 2.0
CREATION_DATE  = 
ORIGINATOR     = 

OBJECT_NAME    = ATLAS CENTAUR R/B
OBJECT_ID      = 1972-065B
CENTER_NAME    = EARTH
REF_FRAME      = TEME
TIME_SYSTEM    = UTC
MEAN_ELEMENT_THEORY = SGP/SGP4

EPOCH          = 2026-02-23T07:14:12.992064
MEAN_MOTION    = 14.77640693
ECCENTRICITY   = .0034411
INCLINATION    = 35.0024
RA_OF_ASC_NODE = 30.0684
ARG_OF_PERICENTER = 249.4093
MEAN_ANOMALY   = 110.2915

EPHEMERIS_TYPE = 0
CLASSIFICATION_TYPE = U
NORAD_CAT_ID   = 6155
ELEMENT_SET_NO = 999
REV_AT_EPOCH   = 83913
BSTAR          = .18832E-3
MEAN_MOTION_DOT = .136E-4
MEAN_MOTION_DDOT = 0

CCSDS_OMM_VERS = 2.0
CREATION_DATE  = 
ORIGINATOR     = 

OBJECT_NAME    = SL-8 R/B
OBJECT_ID      = 1975-112B
CENTER_NAME    = EARTH
REF_FRAME      = TEME
TIME_SYSTEM    = UTC
MEAN_ELEMENT_THEORY = SGP/SGP4

EPOCH          = 2026-02-23T09:10:47.644032
MEAN_MOTION    = 14.38194733
ECCENTRICITY   = .0014817
INCLINATION    = 74.0599
RA_OF_ASC_NODE = 45.2307
ARG_OF_PERICENTER = 144.0237
MEAN_ANOMALY   = 216.1918

EPHEMERIS_TYPE = 0
CLASSIFICATION_TYPE = U
NORAD_CAT_ID   = 8459
ELEMENT_SET_NO = 999
REV_AT_EPOCH   = 62981
BSTAR          = .61345E-4
MEAN_MOTION_DOT = .16E-5
MEAN_MOTION_DDOT = 0

CCSDS_OMM_VERS = 2.0
CREATION_DATE  = 
ORIGINATOR     = 

OBJECT_NAME    = SL-3 R/B
OBJECT_ID      = 1977-057B
CENTER_NAME    = EARTH
REF_FRAME      = TEME
TIME_SYSTEM    = UTC
MEAN_ELEMENT_THEORY = SGP/SGP4

EPOCH          = 2026-02-23T11:20:37.001472
MEAN_MOTION    = 15.45048804
ECCENTRICITY   = .000688
INCLINATION    = 97.5756
RA_OF_ASC_NODE = 225.7740
ARG_OF_PERICENTER = 342.6621
MEAN_ANOMALY   = 17.4391

EPHEMERIS_TYPE = 0
CLASSIFICATION_TYPE = U
NORAD_CAT_ID   = 10114
ELEMENT_SET_NO = 999
REV_AT_EPOCH   = 66613
BSTAR          = .31114E-3
MEAN_MOTION_DOT = .1462E-3
MEAN_MOTION_DDOT = 0

CCSDS_OMM_VERS = 2.0
CREATION_DATE  = 
ORIGINATOR     = 

OBJECT_NAME    = SEASAT 1
OBJECT_ID      = 1978-064A
CENTER_NAME    = EARTH
REF_FRAME      = TEME
TIME_SYSTEM    = UTC
MEAN_ELEMENT_THEORY = SGP/SGP4

EPOCH          = 2026-02-23T09:14:17.337696
MEAN_MOTION    = 14.46148188
ECCENTRICITY   = .0001945
INCLINATION    = 108.0143
RA_OF_ASC_NODE = 95.4810
ARG_OF_PERICENTER = 291.2001
MEAN_ANOMALY   = 68.8937

EPHEMERIS_TYPE = 0
CLASSIFICATION_TYPE = U
NORAD_CAT_ID   = 10967
ELEMENT_SET_NO = 999
REV_AT_EPOCH   = 50444
BSTAR          = .10204E-3
MEAN_MOTION_DOT = .227E-5
MEAN_MOTION_DDOT = 0

CCSDS_OMM_VERS = 2.0
CREATION_DATE  = 
ORIGINATOR     = 

OBJECT_NAME    = SL-14 R/B
OBJECT_ID      = 1979-011B
CENTER_NAME    = EARTH
REF_FRAME      = TEME
TIME_SYSTEM    = UTC
MEAN_ELEMENT_THEORY = SGP/SGP4

EPOCH          = 2026-02-23T10:17:13.881696
MEAN_MOTION    = 14.91889876
ECCENTRICITY   = .00176
INCLINATION    = 82.5232
RA_OF_ASC_NODE = 110.1052
ARG_OF_PERICENTER = 104.1874
MEAN_ANOMALY   = 256.1302

EPHEMERIS_TYPE = 0
CLASSIFICATION_TYPE = U
NORAD_CAT_ID   = 11267
ELEMENT_SET_NO = 999
REV_AT_EPOCH   = 52665
BSTAR          = .49237E-4
MEAN_MOTION_DOT = .525E-5
MEAN_MOTION_DDOT = 0

CCSDS_OMM_VERS = 2.0
CREATION_DATE  = 
ORIGINATOR     = 

OBJECT_NAME    = SL-8 R/B
OBJECT_ID      = 1979-089B
CENTER_NAME    = EARTH
REF_FRAME      = TEME
TIME_SYSTEM    = UTC
MEAN_ELEMENT_THEORY = SGP/SGP4

EPOCH          = 2026-02-23T10:58:41.521728
MEAN_MOTION    = 14.42341203
ECCENTRICITY   = .0017027
INCLINATION    = 74.0684
RA_OF_ASC_NODE = 117.3907
ARG_OF_PERICENTER = 291.5700
MEAN_ANOMALY   = 68.3642

EPHEMERIS_TYPE = 0
CLASSIFICATION_TYPE = U
NORAD_CAT_ID   = 11574
ELEMENT_SET_NO = 999
REV_AT_EPOCH   = 43405
BSTAR          = .80073E-4
MEAN_MOTION_DOT = .238E-5
MEAN_MOTION_DDOT = 0

CCSDS_OMM_VERS = 2.0
CREATION_DATE  = 
ORIGINATOR     = 

OBJECT_NAME    = SL-14 R/B
OBJECT_ID      = 1980-005B
CENTER_NAME    = EARTH
REF_FRAME      = TEME
TIME_SYSTEM    = UTC
MEAN_ELEMENT_THEORY = SGP/SGP4

EPOCH          = 2026-02-23T05:32:32.731296
MEAN_MOTION    = 14.90910939
ECCENTRICITY   = .0014892
INCLINATION    = 82.5168
RA_OF_ASC_NODE = 320.9488
ARG_OF_PERICENTER = 206.7519
MEAN_ANOMALY   = 153.2934

EPHEMERIS_TYPE = 0
CLASSIFICATION_TYPE = U
NORAD_CAT_ID   = 11672
ELEMENT_SET_NO = 999
REV_AT_EPOCH   = 47433
BSTAR          = .59704E-4
MEAN_MOTION_DOT = .615E-5
MEAN_MOTION_DDOT = 0

CCSDS_OMM_VERS = 2.0
CREATION_DATE  = 
ORIGINATOR     = 

OBJECT_NAME    = SL-8 R/B
OBJECT_ID      = 1981-003B
CENTER_NAME    = EARTH
REF_FRAME      = TEME
TIME_SYSTEM    = UTC
MEAN_ELEMENT_THEORY = SGP/SGP4

EPOCH          = 2026-02-23T10:16:12.968832
MEAN_MOTION    = 15.10400468
ECCENTRICITY   = .0262686
INCLINATION    = 82.9393
RA_OF_ASC_NODE = 303.2060
ARG_OF_PERICENTER = 228.2328
MEAN_ANOMALY   = 129.6189

EPHEMERIS_TYPE = 0
CLASSIFICATION_TYPE = U
NORAD_CAT_ID   = 12139
ELEMENT_SET_NO = 999
REV_AT_EPOCH   = 31252
BSTAR          = .47483E-3
MEAN_MOTION_DOT = .18173E-3
MEAN_MOTION_DDOT = 0

CCSDS_OMM_VERS = 2.0
CREATION_DATE  = 
ORIGINATOR     = 

OBJECT_NAME    = SL-3 R/B
OBJECT_ID      = 1981-046B
CENTER_NAME    = EARTH
REF_FRAME      = TEME
TIME_SYSTEM    = UTC
MEAN_ELEMENT_THEORY = SGP/SGP4

EPOCH          = 2026-02-23T10:35:38.421888
MEAN_MOTION    = 15.41580585
ECCENTRICITY   = .0020608
INCLINATION    = 81.2322
RA_OF_ASC_NODE = 306.8469
ARG_OF_PERICENTER = 69.6917
MEAN_ANOMALY   = 290.6537

EPHEMERIS_TYPE = 0
CLASSIFICATION_TYPE = U
NORAD_CAT_ID   = 12465
ELEMENT_SET_NO = 999
REV_AT_EPOCH   = 43623
BSTAR          = .35461E-3
MEAN_MOTION_DOT = .15057E-3
MEAN_MOTION_DDOT = 0

CCSDS_OMM_VERS = 2.0
CREATION_DATE  = 
ORIGINATOR     = 

OBJECT_NAME    = SL-3 R/B
OBJECT_ID      = 1981-103B
CENTER_NAME    = EARTH
REF_FRAME      = TEME
TIME_SYSTEM    = UTC
MEAN_ELEMENT_THEORY = SGP/SGP4

EPOCH          = 2026-02-23T10:24:06.014880
MEAN_MOTION    = 15.21183237
ECCENTRICITY   = .0012878
INCLINATION    = 81.1568
RA_OF_ASC_NODE = 230.1549
ARG_OF_PERICENTER = 337.6014
MEAN_ANOMALY   = 22.4653

EPHEMERIS_TYPE = 0
CLASSIFICATION_TYPE = U
NORAD_CAT_ID   = 12904
ELEMENT_SET_NO = 999
REV_AT_EPOCH   = 97106
BSTAR          = .29035E-3
MEAN_MOTION_DOT = .651E-4
MEAN_MOTION_DDOT = 0

CCSDS_OMM_VERS = 2.0
CREATION_DATE  = 
ORIGINATOR     = 

OBJECT_NAME    = SL-3 R/B
OBJECT_ID      = 1982-013B
CENTER_NAME    = EARTH
REF_FRAME      = TEME
TIME_SYSTEM    = UTC
MEAN_ELEMENT_THEORY = SGP/SGP4

EPOCH          = 2026-02-23T10:44:27.698784
MEAN_MOTION    = 15.21846256
ECCENTRICITY   = .002194
INCLINATION    = 81.1760
RA_OF_ASC_NODE = 177.4571
ARG_OF_PERICENTER = 226.2762
MEAN_ANOMALY   = 133.6654

EPHEMERIS_TYPE = 0
CLASSIFICATION_TYPE = U
NORAD_CAT_ID   = 13068
ELEMENT_SET_NO = 999
REV_AT_EPOCH   = 40218
BSTAR          = .23277E-3
MEAN_MOTION_DOT = .5349E-4
MEAN_MOTION_DDOT = 0

CCSDS_OMM_VERS = 2.0
CREATION_DATE  = 
ORIGINATOR     = 

OBJECT_NAME    = SL-3 R/B
OBJECT_ID      = 1982-039B
CENTER_NAME    = EARTH
REF_FRAME      = TEME
TIME_SYSTEM    = UTC
MEAN_ELEMENT_THEORY = SGP/SGP4

EPOCH          = 2026-02-23T11:25:55.782912
MEAN_MOTION    = 15.09989793
ECCENTRICITY   = .0029996
INCLINATION    = 81.1590
RA_OF_ASC_NODE = 232.3470
ARG_OF_PERICENTER = 10.8768
MEAN_ANOMALY   = 349.3098

EPHEMERIS_TYPE = 0
CLASSIFICATION_TYPE = U
NORAD_CAT_ID   = 13154
ELEMENT_SET_NO = 999
REV_AT_EPOCH   = 37949
BSTAR          = .15735E-3
MEAN_MOTION_DOT = .2605E-4
MEAN_MOTION_DDOT = 0

